NORAD_CAT_ID,OBJECT_NAME,OBJECT_TYPE,EPOCH,MEAN_MOTION,ECCENTRICITY,INCLINATION,RA_OF_ASC_NODE,ARG_OF_PERICENTER,MEAN_ANOMALY,BSTAR,MEAN_MOTION_DOT,MEAN_MOTION_DDOT,TLE_LINE0,TLE_LINE1,TLE_LINE2,SEMIMAJOR_AXIS,PERIOD,APOGEE,PERIGEE,DECAYED
52503.0,STARLINK-3861,PAYLOAD,2023-02-01 06:40:28,15.08851561,0.0001281,53.2171,82.7158,83.945,276.1688,0.00041011,6.247e-05,0.0,0 STARLINK-3861,1 52503U 22049BE  23032.27810190  .00006247  00000-0  41011-3 0  9999,2 52503  53.2171  82.7158 0001281  83.9450 276.1688 15.08851561 41731,6917.845,95.437,540.596,538.824,0.0
52503.0,STARLINK-3861,PAYLOAD,2023-02-01 09:51:14,15.08855954,0.0001312,53.2171,82.1209,84.8933,275.2209,0.00050212,7.716e-05,0.0,0 STARLINK-3861,1 52503U 22049BE  23032.41058001  .00007716  00000-0  50212-3 0  9995,2 52503  53.2171  82.1209 0001312  84.8933 275.2209 15.08855954 41596,6917.832,95.437,540.604,538.789,0.0
52503.0,STARLINK-3861,PAYLOAD,2023-02-02 03:20:28,15.08841655,0.0001382,53.2175,78.8501,102.3435,257.7712,5.4707e-05,5.83e-06,0.0,0 STARLINK-3861,1 52503U 22049BE  23033.13922253  .00000583  00000-0  54707-4 0  9993,2 52503  53.2175  78.8501 0001382 102.3435 257.7712 15.08841655 41864,6917.875,95.437,540.696,538.784,0.0
52503.0,STARLINK-3861,PAYLOAD,2023-02-02 12:52:47,15.08839283,0.0001817,53.2176,77.0643,119.5597,240.5576,3.5469e-05,2.76e-06,0.0,0 STARLINK-3861,1 52503U 22049BE  23033.53666417  .00000276  00000-0  35469-4 0  9997,2 52503  53.2176  77.0643 0001817 119.5597 240.5576 15.08839283 41766,6917.883,95.438,541.005,538.491,0.0
52503.0,STARLINK-3861,PAYLOAD,2023-02-03 09:32:48,15.08842561,0.0001421,53.2179,73.1985,117.1402,242.9735,0.00010547,1.391e-05,0.0,0 STARLINK-3861,1 52503U 22049BE  23034.39778309  .00001391  00000-0  10547-3 0  9994,2 52503  53.2179  73.1985 0001421 117.1402 242.9735 15.08842561 42054,6917.873,95.437,540.721,538.755,0.0
52503.0,STARLINK-3861,PAYLOAD,2023-02-04 10:58:58,15.08839771,0.0001104,53.2172,68.4402,94.1363,265.9756,0.00029708,4.443e-05,0.0,0 STARLINK-3861,1 52503U 22049BE  23035.45762713  .00004443  00000-0  29708-3 0  9994,2 52503  53.2172  68.4402 0001104  94.1363 265.9756 15.08839771 42211,6917.881,95.438,540.51,538.982,0.0
52503.0,STARLINK-3861,PAYLOAD,2023-02-04 18:55:54,15.0883842,0.0001143,53.2169,66.9549,105.873,254.2388,9.2815e-05,1.19e-05,0.0,0 STARLINK-3861,1 52503U 22049BE  23035.78882748  .00001190  00000-0  92815-4 0  9997,2 52503  53.2169  66.9549 0001143 105.8730 254.2388 15.08838420 42103,6917.885,95.438,540.541,538.96,0.0
52503.0,STARLINK-3861,PAYLOAD,2023-02-05 06:03:36,15.08835756,0.0001333,53.2184,64.8745,97.1162,262.9982,1.7713e-06,-2.6e-06,0.0,0 STARLINK-3861,1 52503U 22049BE  23036.25251079 -.00000260  00000-0  17713-5 0  9990,2 52503  53.2184  64.8745 0001333  97.1162 262.9982 15.08835756 42338,6917.893,95.438,540.681,538.836,0.0
52503.0,STARLINK-3861,PAYLOAD,2023-02-05 10:49:46,15.08840293,0.0001822,53.2181,63.9817,125.6547,234.4615,4.6036e-05,4.45e-06,0.0,0 STARLINK-3861,1 52503U 22049BE  23036.45122935  .00000445  00000-0  46036-4 0  9993,2 52503  53.2181  63.9817 0001822 125.6547 234.4615 15.08840293 42207,6917.879,95.438,541.005,538.484,0.0
52503.0,STARLINK-3861,PAYLOAD,2023-02-05 18:46:41,15.08841105,0.0001413,53.2176,62.4946,88.2104,271.905,0.00011499,1.543e-05,0.0,0 STARLINK-3861,1 52503U 22049BE  23036.78242991  .00001543  00000-0  11499-3 0  9998,2 52503  53.2176  62.4946 0001413  88.2104 271.9050 15.08841105 42254,6917.877,95.437,540.72,538.765,0.0
52503.0,STARLINK-3861,PAYLOAD,2023-02-06 10:40:32,15.08851387,0.0001485,53.2176,59.5208,87.4553,272.661,0.0002691,3.999e-05,0.0,0 STARLINK-3861,1 52503U 22049BE  23037.44482595  .00003999  00000-0  26910-3 0  9999,2 52503  53.2176  59.5208 0001485  87.4553 272.6610 15.08851387 42512,6917.846,95.437,540.738,538.683,0.0
52503.0,STARLINK-3861,PAYLOAD,2023-02-06 12:15:55,15.08856053,0.0001416,53.2174,59.2233,87.3312,272.7842,0.00034349,5.185e-05,0.0,0 STARLINK-3861,1 52503U 22049BE  23037.51106375  .00005185  00000-0  34349-3 0  9990,2 52503  53.2174  59.2233 0001416  87.3312 272.7842 15.08856053 42367,6917.831,95.437,540.676,538.717,0.0
52503.0,STARLINK-3861,PAYLOAD,2023-02-06 18:37:28,15.0884338,0.0001363,53.2174,58.0344,88.0022,272.1126,0.00017028,2.423e-05,0.0,0 STARLINK-3861,1 52503U 22049BE  23037.77602909  .00002423  00000-0  17028-3 0  9999,2 52503  53.2174  58.0344 0001363  88.0022 272.1126 15.08843380 42564,6917.87,95.437,540.678,538.792,0.0
52503.0,STARLINK-3861,PAYLOAD,2023-02-07 12:06:42,15.08872598,0.0001361,53.2162,54.7631,95.4813,264.6335,0.0011638,0.00018299,0.0,0 STARLINK-3861,1 52503U 22049BE  23038.50465938  .00018299  00000-0  11638-2 0  9998,2 52503  53.2162  54.7631 0001361  95.4813 264.6335 15.08872598 42674,6917.781,95.435,540.587,538.704,0.0
52503.0,STARLINK-3861,PAYLOAD,2023-02-08 07:11:20,15.08858526,0.0001211,53.2167,51.1943,98.6454,261.4675,0.00088273,0.00013796,0.0,0 STARLINK-3861,1 52503U 22049BE  23039.29954225  .00013796  00000-0  88273-3 0  9994,2 52503  53.2167  51.1943 0001211  98.6454 261.4675 15.08858526 42796,6917.824,95.436,540.527,538.851,0.0
52503.0,STARLINK-3861,PAYLOAD,2023-02-08 11:57:29,15.08867915,0.0001406,53.2165,50.3018,128.5351,231.5768,0.0020569,0.00032625,0.0,0 STARLINK-3861,1 52503U 22049BE  23039.49825905  .00032625  00000-0  20569-2 0  9993,2 52503  53.2165  50.3018 0001406 128.5351 231.5768 15.08867915 42662,6917.795,95.436,540.633,538.687,0.0
52503.0,STARLINK-3861,PAYLOAD,2023-02-09 07:02:08,15.08848137,0.0001135,53.2171,46.7344,75.204,284.9078,0.0018838,0.00029827,0.0,0 STARLINK-3861,1 52503U 22049BE  23040.29314968  .00029827  00000-0  18838-2 0  9991,2 52503  53.2171  46.7344 0001135  75.2040 284.9078 15.08848137 42944,6917.856,95.437,540.506,538.935,0.0
52503.0,STARLINK-3861,PAYLOAD,2023-02-09 10:12:54,15.08854424,0.0001178,53.2171,46.1391,72.899,287.2131,0.001971,0.00031232,0.0,0 STARLINK-3861,1 52503U 22049BE  23040.42562873  .00031232  00000-0  19710-2 0  9999,2 52503  53.2171  46.1391 0001178  72.8990 287.2131 15.08854424 42801,6917.836,95.437,540.516,538.886,0.0
52503.0,STARLINK-3861,PAYLOAD,2023-02-09 11:48:17,15.08859078,0.000126,53.2173,45.8424,74.5768,285.5363,0.0020323,0.00032221,0.0,0 STARLINK-3861,1 52503U 22049BE  23040.49186811  .00032221  00000-0  20323-2 0  9991,2 52503  53.2173  45.8424 0001260  74.5768 285.5363 15.08859078 42819,6917.822,95.436,540.559,538.815,0.0
52503.0,STARLINK-3861,PAYLOAD,2023-02-10 11:39:04,15.0889524,0.0001107,53.2175,41.3817,100.1379,259.9738,0.0034154,0.00054572,0.0,0 STARLINK-3861,1 52503U 22049BE  23041.48546399  .00054572  00000-0  34154-2 0  9992,2 52503  53.2175  41.3817 0001107 100.1379 259.9738 15.08895240 43129,6917.712,95.434,540.342,538.811,0.0
52503.0,STARLINK-3861,PAYLOAD,2023-02-11 06:43:42,15.08856697,0.0002072,53.2183,37.8125,92.9643,267.1587,0.0022028,0.0003496,0.0,0 STARLINK-3861,1 52503U 22049BE  23042.28035258  .00034960  00000-0  22028-2 0  9994,2 52503  53.2183  37.8125 0002072  92.9643 267.1587 15.08856697 43243,6917.829,95.436,541.128,538.261,0.0
52503.0,STARLINK-3861,PAYLOAD,2023-02-11 11:29:51,15.08860797,0.0001589,53.2187,36.9213,93.3482,266.7692,0.0020237,0.00032085,0.0,0 STARLINK-3861,1 52503U 22049BE  23042.47907094  .00032085  00000-0  20237-2 0  9997,2 52503  53.2187  36.9213 0001589  93.3482 266.7692 15.08860797 43117,6917.817,95.436,540.781,538.583,0.0
52503.0,STARLINK-3861,PAYLOAD,2023-02-12 06:34:29,15.0885439,0.0002122,53.2183,33.3532,95.8234,264.3,0.0018411,0.00029147,0.0,0 STARLINK-3861,1 52503U 22049BE  23043.27395601  .00029147  00000-0  18411-2 0  9997,2 52503  53.2183  33.3532 0002122  95.8234 264.3000 15.08854390 43393,6917.836,95.437,541.169,538.233,0.0
52503.0,STARLINK-3861,PAYLOAD,2023-02-12 09:45:15,15.08861374,0.0001638,53.2195,32.7594,85.6796,274.4383,0.0020166,0.00031971,0.0,0 STARLINK-3861,1 52503U 22049BE  23043.40643497  .00031971  00000-0  20166-2 0  9999,2 52503  53.2195  32.7594 0001638  85.6796 274.4383 15.08861374 43259,6917.815,95.436,540.813,538.547,0.0
52503.0,STARLINK-3861,PAYLOAD,2023-02-12 22:28:21,15.08847163,0.0001789,53.2177,30.3804,92.3227,267.797,0.0012403,0.0001951,0.0,0 STARLINK-3861,1 52503U 22049BE  23043.93635803  .00019510  00000-0  12403-2 0  9999,2 52503  53.2177  30.3804 0001789  92.3227 267.7970 15.08847163 43491,6917.858,95.437,540.961,538.486,0.0
52503.0,STARLINK-3861,PAYLOAD,2023-02-13 11:11:25,15.08873156,0.0001793,53.2174,28.0015,94.5598,265.5599,0.0018025,0.00028542,0.0,0 STARLINK-3861,1 52503U 22049BE  23044.46627144  .00028542  00000-0  18025-2 0  9998,2 52503  53.2174  28.0015 0001793  94.5598 265.5599 15.08873156 43412,6917.779,95.435,540.884,538.404,0.0
52503.0,STARLINK-3861,PAYLOAD,2023-02-13 15:57:35,15.08828663,0.0002627,53.2182,27.1092,87.3227,272.8066,-0.00049552,-8.164e-05,0.0,0 STARLINK-3861,1 52503U 22049BE  23044.66499629 -.00008164  00000-0 -49552-3 0  9995,2 52503  53.2182  27.1092 0002627  87.3227 272.8066 15.08828663 43606,6917.915,95.438,541.597,537.963,0.0
52503.0,STARLINK-3861,PAYLOAD,2023-02-14 07:51:27,15.08849892,0.0001471,53.2189,24.1372,87.6595,272.4566,0.0020165,0.00031959,0.0,0 STARLINK-3861,1 52503U 22049BE  23045.32739795  .00031959  00000-0  20165-2 0  9994,2 52503  53.2189  24.1372 0001471  87.6595 272.4566 15.08849892 43707,6917.85,95.437,540.733,538.698,0.0
52503.0,STARLINK-3861,PAYLOAD,2023-02-14 15:48:23,15.08833529,0.0002194,53.2177,22.6491,77.6273,282.4964,0.0017626,0.00027871,0.0,0 STARLINK-3861,1 52503U 22049BE  23045.65860403  .00027871  00000-0  17626-2 0  9997,2 52503  53.2177  22.6491 0002194  77.6273 282.4964 15.08833529 43752,6917.9,95.438,541.283,538.247,0.0
52503.0,STARLINK-3861,PAYLOAD,2023-02-15 04:31:28,15.08861979,0.0001652,53.2175,20.2695,91.4065,268.7116,0.0020528,0.00032553,0.0,0 STARLINK-3861,1 52503U 22049BE  23046.18852065  .00032553  00000-0  20528-2 0  9999,2 52503  53.2175  20.2695 0001652  91.4065 268.7116 15.08861979 43678,6917.813,95.436,540.821,538.535,0.0
